ESTCUBE 1               
1 39161U 13021C   22288.72233440  .00002123  00000+0  33645-3 0  9995
2 39161  97.9002   2.7926 0010102  40.8012 319.3933 14.73189273507170
FENGYUN 3C              
1 39260U 13052A   22288.82394980  .00000140  00000+0  91732-4 0  9996
2 39260  98.4475 310.8060 0010000 290.4380  69.5718 14.15950685468956
CASSIOPE                
1 39265U 13055A   22288.39328998  .00017059  00000+0  44986-3 0  9997
2 39265  80.9624 139.9624 0610763 322.2057  33.7669 14.41478275469594
ZACUBE-1 (TSHEPISOSAT)  
1 39417U 13066B   22288.64184396  .00004155  00000+0  50536-3 0  9999
2 39417  97.6521 254.8262 0057629  12.2886 347.9718 14.82795189480938
CINEMA-3 (KHUSAT-2)     
1 39426U 13066L   22288.33455309  .00001415  00000+0  22394-3 0  9997
2 39426  97.8062 223.1053 0101899 211.1182 148.3966 14.70399043476888
TRITON-1                
1 39427U 13066M   22288.75272191  .00002194  00000+0  34700-3 0  9999
2 39427  97.8178 219.3580 0109755 239.7609 119.2696 14.69337160476638
DELFI-N3XT              
1 39428U 13066N   22288.37527586  .00004532  00000+0  69429-3 0  9993
2 39428  97.8179 217.6275 0114529 254.2165 104.6388 14.69795315476148
GOMX-1                  
1 39430U 13066Q   22288.77551333  .00003157  00000+0  56470-3 0  9991
2 39430  97.7979 189.0504 0149556  25.9724 334.8877 14.60477907473857
BRITE-PL1 (LEM)         
1 39431U 13066R   22288.52097291  .00000850  00000+0  19020-3 0  9990
2 39431  97.6879 131.5032 0200365 216.3112 142.4348 14.47452566469734
ICUBE-1                 
1 39432U 13066S   22288.74406843  .00004650  00000+0  45352-3 0  9991
2 39432  97.4740 286.3425 0029481 219.3406 140.5672 14.92578500483857
HUMSAT-D                
1 39433U 13066T   22288.24779046  .00006496  00000+0  59151-3 0  9997
2 39433  97.4526 293.5988 0028442 192.6253 167.4259 14.95177009483113
VELOX-PII               
1 39438U 13066Y   22288.51626275  .00003004  00000+0  39446-3 0  9994
2 39438  97.7076 246.0926 0070529  66.1725 294.6860 14.79236441478751
FIRST-MOVE              
1 39439U 13066Z   22288.38154777  .00009241  00000+0  10492-2 0  9991
2 39439  97.6519 257.3013 0061988   7.3372 352.8736 14.85110709479844
CUBEBUG-2 (LO-74)       
1 39440U 13066AA  22287.87826965  .00002957  00000+0  40146-3 0  9998
2 39440  97.7401 240.5127 0079796 103.7005 257.3106 14.77378355479111
NEE-02 KRYSAOR          
1 39441U 13066AB  22288.39319513  .00001983  00000+0  27975-3 0  9996
2 39441  97.7507 238.1179 0081645 116.2405 244.7226 14.76011453477728
FUNCUBE-1 (AO-73)       
1 39444U 13066AE  22288.36574801  .00005186  00000+0  61228-3 0  9997
2 39444  97.6398 256.9874 0056015   0.7514 359.3775 14.83978564479300
HINCUBE                 
1 39445U 13066AF  22288.36584199  .00005007  00000+0  59429-3 0  9991
2 39445  97.6413 256.7952 0056160   3.0613 357.0934 14.83773078479249
UWE-3                   
1 39446U 13066AG  22288.43720569  .00003812  00000+0  49055-3 0  9999
2 39446  97.7010 247.4244 0069617  58.8328 301.9686 14.79971790478200
AIST-1 (RS-41)          
1 39492U 13078C   22288.78089996  .00001716  00000+0  18073-3 0  9990
2 39492  82.4156 121.4833 0021103  68.7448 291.5995 14.88653954477686
SPROUT                  
1 39770U 14029E   22288.80223364  .00016796  00000+0  16361-2 0  9999
2 39770  97.9512  46.6639 0007872  51.3373 308.8336 14.92542823455602
UNISAT-6                
1 40012U 14033C   22288.72592401  .00002376  00000+0  34897-3 0  9991
2 40012  97.6632 110.3057 0058114 128.5454 232.0985 14.75230902447712
BUGSAT-1 (TITA)         
1 40014U 14033E   22288.59027794  .00003628  00000+0  31629-3 0  9997
2 40014  98.1474 291.9633 0030809   2.6741 357.4638 14.97202547454119
DUCHIFAT-1              
1 40021U 14033M   22288.35775379  .00008274  00000+0  78594-3 0  9992
2 40021  98.0255 240.8590 0012570  14.4567 345.7010 14.93703866452590
NANOSATC-BR1            
1 40024U 14033Q   22288.39256211  .00006469  00000+0  63623-3 0  9999
2 40024  97.9961 233.6102 0012331  20.9942 339.1780 14.92410884451862
QB50P1                  
1 40025U 14033R   22288.54101428  .00004164  00000+0  42570-3 0  9994
2 40025  97.9680 226.9483 0012827  28.9583 331.2344 14.91065738451656
DTUSAT-2                
1 40030U 14033W   22288.50534583  .00004793  00000+0  49636-3 0  9996
2 40030  97.9425 221.8091 0012259  26.8126 333.3723 14.90473857451521
QB50P2                  
1 40032U 14033Y   22288.74828575  .00004178  00000+0  43368-3 0  9994
2 40032  97.9425 222.0682 0012151  26.4991 333.6845 14.90451588452053
POLYITAN-1              
1 40042U 14033AJ  22288.41566365  .00005549  00000+0  56290-3 0  9996
2 40042  97.9788 228.1851 0014747  20.9879 339.1941 14.91208878451520
TIGRISAT                
1 40043U 14033AK  22288.56343253  .00001998  00000+0  29372-3 0  9997
2 40043  97.6569 111.3759 0060012 126.4510 234.2252 14.75268670447337
AISAT                   
1 40054U 14034B   22288.51682178  .00004974  00000+0  65971-3 0  9999
2 40054  98.3669 104.8441 0011354 293.1637  66.8377 14.80286299447239
CANX-4                  
1 40055U 14034C   22288.43688262  .00001326  00000+0  20212-3 0  9998
2 40055  98.3709  89.4221 0013678 341.0884  18.9815 14.75621736446414
CANX-5                  
1 40056U 14034D   22288.37593841  .00001360  00000+0  20717-3 0  9998
2 40056  98.3709  89.3384 0013675 341.3461  18.7244 14.75618364437210
VELOX-I                 
1 40057U 14034E   22288.77487017  .00004412  00000+0  59552-3 0  9990
2 40057  98.3713 106.2128 0009836 309.2853  50.7477 14.79617988447268
METEOR-M 2              
1 40069U 14037A   22288.82398855  .00000054  00000+0  44458-4 0  9991
2 40069  98.4302 301.1283 0005290 344.7993  15.3024 14.20722296428958
DX1                     
1 40071U 14037C   22288.72401663  .00001726  00000+0  22456-3 0  9995
2 40071  98.3885 163.3354 0007276 296.2108  63.8348 14.82056257447153
UKUBE-1                 
1 40074U 14037F   22288.64623493  .00004434  00000+0  51577-3 0  9991
2 40074  98.3634 175.5195 0002657 256.3180 103.7722 14.85862906447914
FIREBIRD 3              
1 40377U 15003B   22288.65591138  .00037508  00000+0  99476-3 0  9990
2 40377  99.0791 180.6041 0090716 338.0659  21.6705 15.34067952426820
FIREBIRD 4              
1 40378U 15003C   22288.67336629  .00038373  00000+0  10143-2 0  9999
2 40378  99.0800 180.8661 0090556 337.5890  22.1402 15.34176686426831
GRIFEX                  
1 40379U 15003D   22288.65353921  .00022022  00000+0  72520-3 0  9994
2 40379  99.0905 165.3338 0110838  24.1769 336.4610 15.25700396425941
CP10 (EXOCUBE)          
1 40380U 15003E   22288.71460784  .00013262  00000+0  48556-3 0  9997
2 40380  99.1031 157.5958 0120330  49.8588 311.3110 15.21562888425446
DEORBITSAIL             
1 40719U 15032E   22288.63028183  .00003974  00000+0  54445-3 0  9992
2 40719  97.7629 162.8916 0015457 340.3249  19.7364 14.78926626391647
NUDT-PHONESAT           
1 40900U 15049B   22288.88560551  .00058142  00000+0  13168-2 0  9992
2 40900  97.3940 307.9634 0007758 193.4850 242.8652 15.42887345393131
XW-2A                   
1 40903U 15049E   22288.80576400  .00046127  00000+0  58491-3 0  9996
2 40903  97.1634 347.8215 0008818  43.2307  93.0368 15.59277984397973
XW-2C                   
1 40906U 15049H   22288.83532069  .00010271  00000+0  47413-3 0  9998
2 40906  97.4962 291.3995 0011610 303.1190 141.0188 15.20352589391200
XW-2D                   
1 40907U 15049J   22288.86697096  .00012039  00000+0  54172-3 0  9998
2 40907  97.4958 291.5286 0010668 297.9830 147.8930 15.21198186391261
LILACSAT-2              
1 40908U 15049K   22288.80835676  .00005979  00000+0  30952-3 0  9996
2 40908  97.5219 288.2831 0013952 325.7762 112.6397 15.16513111390725
XW-2E                   
1 40909U 15049L   22288.78369542  .00018329  00000+0  71759-3 0  9991
2 40909  97.4653 296.2759 0009333 273.7511 172.2778 15.25822198391743
XW-2F                   
1 40910U 15049M   22288.81882100  .00018181  00000+0  72330-3 0  9999
2 40910  97.4734 295.4752 0010202 272.6297 170.8855 15.25280767391510
XW-2B                   
1 40911U 15049N   22288.76981752  .00011811  00000+0  53355-3 0  9996
2 40911  97.4939 291.9904 0010770 299.9983 145.4104 15.21065736391138
KAITUO 1B               
1 40912U 15049P   22288.76889001  .00020646  00000+0  73975-3 0  9997
2 40912  97.4348 299.7756 0010747 228.2529 241.9953 15.28716293392110
TIANWANG 1A (TW-1A)     
1 40928U 15051D   22288.84493628  .00141877  00000+0  10091-2 0  9991
2 40928  97.0278 311.2700 0002274 251.7982 282.6803 15.73444546397068
LAPAN-A2                
1 40931U 15052B   22288.72581211  .00001324  00000+0  94698-4 0  9998
2 40931   5.9963  31.0277 0013014  68.9491 291.2288 14.76888903381151
LQSAT                   
1 40958U 15057A   22288.74216525  .00000827  00000+0  13456-3 0  9996
2 40958  97.7376 329.4968 0016784 295.5391  64.4072 14.73464628377698
ATHENOXAT 1             
1 41168U 15077C   22288.33336787  .00028832  00000+0  11026-2 0  9996
2 41168  14.9847 280.0305 0010077 138.8571 358.4336 15.24397724378601
GALASSIA                
1 41170U 15077E   22288.30628309  .00022222  00000+0  88389-3 0  9994
2 41170  14.9880 272.3367 0010471 158.7371 201.3387 15.22854978378508
VELOX-II                
1 41171U 15077F   22288.28854819  .00017172  00000+0  79136-3 0  9997
2 41171  14.9927 352.3334 0007045 342.8031  17.2052 15.17617855377839
CHUBUSAT-2              
1 41338U 16012B   22288.52014748  .00003764  00000+0  27483-3 0  9998
2 41338  31.0043 339.1836 0013124 263.9747  95.9393 15.01834803365548
CHUBUSAT-3              
1 41339U 16012C   22288.84020985  .00004027  00000+0  29421-3 0  9991
2 41339  31.0115 334.0511 0013035 276.1978  83.7171 15.01880689365593
HORYU-4                 
1 41340U 16012D   22288.39380340  .00006654  00000+0  46208-3 0  9997
2 41340  31.0047 312.7723 0012678 313.9608  45.9982 15.04095599365792
